AQUA                    
1 27424U 02022A   26193.91276689  .00000389  00000+0  87043-4 0  9999
2 27424  98.4294 163.7125 0000864 108.8614 267.3759 14.62195196287031
ARIRANG-2 (KOMPSAT-2)   
1 29268U 06031A   26193.85265102  .00000482  00000+0  98992-4 0  9991
2 29268  97.8313  17.0588 0014472 358.3809 113.4853 14.64676178 65234
ARIRANG-3 (KOMPSAT-3)   
1 38338U 12025B   26193.83083841  .00000204  00000+0  49654-4 0  9998
2 38338  98.1183 150.8505 0006354  45.0572 315.1144 14.62227906755096
ARIRANG-5 (KOMPSAT-5)   
1 39227U 13042A   26193.83823376  .00000704  00000+0  54595-4 0  9996
2 39227  97.6214  20.1791 0005597  65.1043 295.0764 15.04523453707716
ALOS-2                  
1 39766U 14029A   26193.83965469  .00001187  00000+0  16582-3 0  9999
2 39766  97.9226 290.6369 0001601  92.8363 267.3032 14.79471808655370
ASNARO                  
1 40298U 14070A   26193.83996977  .00003226  00000+0  15371-3 0  9996
2 40298  97.3448 269.2645 0006858  94.6926 265.5092 15.19803923647903
ALSAT-1B                
1 41785U 16059C   26193.86221581  .00000375  00000+0  66834-4 0  9995
2 41785  97.7755 201.5178 0010155 136.2572 223.9442 14.72293869524355
ARKTIKA-M 1             
1 47719U 21016A   26188.42887598 -.00000257  00000+0  00000+0 0  9997
2 47719  63.2524  54.6812 7295086 270.0380  14.5466  2.00614486 39194
ARKTIKA-M 2             
1 58584U 23198A   26191.19028483  .00000186  00000+0  00000+0 0  9990
2 58584  63.2187 151.7914 6909064 267.3543  18.7503  2.00608615 18787
ALOS-4 (DAICHI-4)       
1 60182U 24123A   26193.72374080  .00000724  00000+0  10387-3 0  9995
2 60182  97.9221 290.5332 0001592  97.7402 262.3991 14.79477360109650
